start=new Date('2022-04-17T00:00:00.000Z').valueOf();
sats=[{"APOAPSIS":"548.575","PERIOD":"95.593","BSTAR":"-0.00030330000000","SITE":"AFETR","FILE":"3404767","ECCENTRICITY":"0.00019140","OBJECT_TYPE":"PAYLOAD","TLE_LINE2":"2 47739  53.0532 134.3910 0001914  49.2861 310.8294 15.06388243 63103","PERIAPSIS":"545.924","TIME_SYSTEM":"UTC","GP_ID":"201419877","INCLINATION":"53.0532","RA_OF_ASC_NODE":"134.3910","CLASSIFICATION_TYPE":"U","MEAN_ELEMENT_THEORY":"SGP4","EPOCH":"2022-04-16T18:18:28.785024","REV_AT_EPOCH":"6310","SEMIMAJOR_AXIS":"6925.385","MEAN_MOTION":"15.06388243","COUNTRY_CODE":"US","NORAD_CAT_ID":"47739","MEAN_MOTION_DOT":"-0.00004795","EPHEMERIS_TYPE":"0","OBJECT_ID":"2021-017T","DECAY_DATE":null,"OBJECT_NAME":"STARLINK-2150","ARG_OF_PERICENTER":"49.2861","RCS_SIZE":"LARGE","REF_FRAME":"TEME","CENTER_NAME":"EARTH","MEAN_MOTION_DDOT":"0.0000000000000","MEAN_ANOMALY":"310.8294","ELEMENT_SET_NO":"999","LAUNCH_DATE":"2021-03-04","TLE_LINE1":"1 47739U 21017T   22106.76283316 -.00004795  00000-0 -30330-3 0  9997"},{"REV_AT_EPOCH":"6327","EPOCH":"2022-04-16T13:04:40.132416","SEMIMAJOR_AXIS":"6925.357","MEAN_ELEMENT_THEORY":"SGP4","GP_ID":"201419627","RA_OF_ASC_NODE":"120.3670","INCLINATION":"53.0539","CLASSIFICATION_TYPE":"U","OBJECT_TYPE":"PAYLOAD","TLE_LINE2":"2 47740  53.0539 120.3670 0001861  55.1784 304.9380 15.06397224 63278","TIME_SYSTEM":"UTC","PERIAPSIS":"545.933","ECCENTRICITY":"0.00018610","FILE":"3404767","APOAPSIS":"548.511","PERIOD":"95.592","BSTAR":"-0.00001538100000","SITE":"AFETR","TLE_LINE1":"1 47740U 21017U   22106.54490894 -.00000511  00000-0 -15381-4 0  9998","MEAN_ANOMALY":"304.9380","LAUNCH_DATE":"2021-03-04","ELEMENT_SET_NO":"999","REF_FRAME":"TEME","CENTER_NAME":"EARTH","MEAN_MOTION_DDOT":"0.0000000000000","OBJECT_NAME":"STARLINK-2152","ARG_OF_PERICENTER":"55.1784","RCS_SIZE":"LARGE","OBJECT_ID":"2021-017U","DECAY_DATE":null,"EPHEMERIS_TYPE":"0","NORAD_CAT_ID":"47740","MEAN_MOTION_DOT":"-0.00000511","COUNTRY_CODE":"US","MEAN_MOTION":"15.06397224"},{"PERIAPSIS":"545.951","TIME_SYSTEM":"UTC","TLE_LINE2":"2 47741  53.0526 119.4073 0001785  57.7232 302.3930 15.06408618 63264","OBJECT_TYPE":"PAYLOAD","ECCENTRICITY":"0.00017850","FILE":"3404767","SITE":"AFETR","BSTAR":"-0.00000664260000","APOAPSIS":"548.423","PERIOD":"95.592","SEMIMAJOR_AXIS":"6925.322","EPOCH":"2022-04-16T18:12:29.818080","REV_AT_EPOCH":"6326","MEAN_ELEMENT_THEORY":"SGP4","INCLINATION":"53.0526","RA_OF_ASC_NODE":"119.4073","CLASSIFICATION_TYPE":"U","GP_ID":"201420879","DECAY_DATE":null,"OBJECT_ID":"2021-017V","EPHEMERIS_TYPE":"0","MEAN_MOTION_DOT":"-0.00000381","NORAD_CAT_ID":"47741","MEAN_MOTION":"15.06408618","COUNTRY_CODE":"US","TLE_LINE1":"1 47741U 21017V   22106.75867845 -.00000381  00000-0 -66426-5 0  9998","ELEMENT_SET_NO":"999","LAUNCH_DATE":"2021-03-04","MEAN_ANOMALY":"302.3930","MEAN_MOTION_DDOT":"0.0000000000000","CENTER_NAME":"EARTH","REF_FRAME":"TEME","RCS_SIZE":"LARGE","ARG_OF_PERICENTER":"57.7232","OBJECT_NAME":"STARLINK-2154"},{"MEAN_MOTION_DOT":"-0.00003441","NORAD_CAT_ID":"47742","MEAN_MOTION":"15.06401154","COUNTRY_CODE":"US","DECAY_DATE":null,"OBJECT_ID":"2021-017W","EPHEMERIS_TYPE":"0","MEAN_MOTION_DDOT":"0.0000000000000","CENTER_NAME":"EARTH","REF_FRAME":"TEME","RCS_SIZE":"LARGE","ARG_OF_PERICENTER":"56.7210","OBJECT_NAME":"STARLINK-2156","TLE_LINE1":"1 47742U 21017W   22106.83701497 -.00003441  00000-0 -21223-3 0  9992","LAUNCH_DATE":"2021-03-04","ELEMENT_SET_NO":"999","MEAN_ANOMALY":"303.3948","FILE":"3404767","SITE":"AFETR","BSTAR":"-0.00021223000000","PERIOD":"95.592","APOAPSIS":"548.432","PERIAPSIS":"545.988","TIME_SYSTEM":"UTC","TLE_LINE2":"2 47742  53.0517 109.0599 0001765  56.7210 303.3948 15.06401154 63466","OBJECT_TYPE":"PAYLOAD","ECCENTRICITY":"0.00017650","RA_OF_ASC_NODE":"109.0599","CLASSIFICATION_TYPE":"U","INCLINATION":"53.0517","GP_ID":"201421126","SEMIMAJOR_AXIS":"6925.345","REV_AT_EPOCH":"6346","EPOCH":"2022-04-16T20:05:18.093408","MEAN_ELEMENT_THEORY":"SGP4"},{"EPOCH":"2022-04-16T17:31:22.435392","REV_AT_EPOCH":"6342","SEMIMAJOR_AXIS":"6925.351","MEAN_ELEMENT_THEORY":"SGP4","GP_ID":"201419377","RA_OF_ASC_NODE":"109.5377","INCLINATION":"53.0556","CLASSIFICATION_TYPE":"U","TLE_LINE2":"2 47743  53.0556 109.5377 0001849  53.4740 306.6419 15.06399365 63429","OBJECT_TYPE":"PAYLOAD","PERIAPSIS":"545.935","TIME_SYSTEM":"UTC","ECCENTRICITY":"0.00018490","FILE":"3404767","BSTAR":"-0.00003047200000","APOAPSIS":"548.496","PERIOD":"95.592","SITE":"AFETR","TLE_LINE1":"1 47743U 21017X   22106.73012078 -.00000735  00000-0 -30472-4 0  9992","LAUNCH_DATE":"2021-03-04","ELEMENT_SET_NO":"999","MEAN_ANOMALY":"306.6419","REF_FRAME":"TEME","MEAN_MOTION_DDOT":"0.0000000000000","CENTER_NAME":"EARTH","ARG_OF_PERICENTER":"53.4740","OBJECT_NAME":"STARLINK-2157","RCS_SIZE":"LARGE","OBJECT_ID":"2021-017X","DECAY_DATE":null,"EPHEMERIS_TYPE":"0","NORAD_CAT_ID":"47743","MEAN_MOTION_DOT":"-0.00000735","COUNTRY_CODE":"US","MEAN_MOTION":"15.06399365"},{"MEAN_ANOMALY":"306.4265","LAUNCH_DATE":"2021-03-04","ELEMENT_SET_NO":"999","TLE_LINE1":"1 47744U 21017Y   22106.70799941 -.00002743  00000-0 -16537-3 0  9997","OBJECT_NAME":"STARLINK-2158","ARG_OF_PERICENTER":"53.6887","RCS_SIZE":"LARGE","REF_FRAME":"TEME","CENTER_NAME":"EARTH","MEAN_MOTION_DDOT":"0.0000000000000","EPHEMERIS_TYPE":"0","OBJECT_ID":"2021-017Y","DECAY_DATE":null,"MEAN_MOTION":"15.06387750","COUNTRY_CODE":"US","NORAD_CAT_ID":"47744","MEAN_MOTION_DOT":"-0.00002743","MEAN_ELEMENT_THEORY":"SGP4","EPOCH":"2022-04-16T16:59:31.149024","REV_AT_EPOCH":"6344","SEMIMAJOR_AXIS":"6925.386","GP_ID":"201420128","CLASSIFICATION_TYPE":"U","INCLINATION":"53.0537","RA_OF_ASC_NODE":"109.6453","ECCENTRICITY":"0.00017680","OBJECT_TYPE":"PAYLOAD","TLE_LINE2":"2 47744  53.0537 109.6453 0001768  53.6887 306.4265 15.06387750 63443","TIME_SYSTEM":"UTC","PERIAPSIS":"546.027","APOAPSIS":"548.476","PERIOD":"95.593","BSTAR":"-0.00016537000000","SITE":"AFETR","FILE":"3404767"},{"RA_OF_ASC_NODE":"118.9107","CLASSIFICATION_TYPE":"U","INCLINATION":"53.0523","GP_ID":"201420379","MEAN_ELEMENT_THEORY":"SGP4","SEMIMAJOR_AXIS":"6925.362","REV_AT_EPOCH":"6327","EPOCH":"2022-04-16T20:51:44.076960","SITE":"AFETR","BSTAR":"0.00000827520000","APOAPSIS":"548.331","PERIOD":"95.592","FILE":"3404767","ECCENTRICITY":"0.00015940","PERIAPSIS":"546.123","TIME_SYSTEM":"UTC","TLE_LINE2":"2 47745  53.0523 118.9107 0001594  59.7678 300.3468 15.06395490 63279","OBJECT_TYPE":"PAYLOAD","RCS_SIZE":"LARGE","ARG_OF_PERICENTER":"59.7678","OBJECT_NAME":"STARLINK-2159","MEAN_MOTION_DDOT":"0.0000000000000","CENTER_NAME":"EARTH","REF_FRAME":"TEME","LAUNCH_DATE":"2021-03-04","ELEMENT_SET_NO":"999","MEAN_ANOMALY":"300.3468","TLE_LINE1":"1 47745U 21017Z   22106.86926015 -.00000158  00000-0  82752-5 0  9990","COUNTRY_CODE":"US","MEAN_MOTION":"15.06395490","MEAN_MOTION_DOT":"-0.00000158","NORAD_CAT_ID":"47745","EPHEMERIS_TYPE":"0","DECAY_DATE":null,"OBJECT_ID":"2021-017Z"},{"TIME_SYSTEM":"UTC","PERIAPSIS":"546.018","TLE_LINE2":"2 47746  53.0552 119.5329 0001766  51.6628 308.4519 15.06390964 63246","OBJECT_TYPE":"PAYLOAD","ECCENTRICITY":"0.00017660","FILE":"3404767","SITE":"AFETR","BSTAR":"-0.00002498100000","PERIOD":"95.593","APOAPSIS":"548.464","SEMIMAJOR_AXIS":"6925.376","REV_AT_EPOCH":"6324","EPOCH":"2022-04-16T17:30:02.384064","MEAN_ELEMENT_THEORY":"SGP4","RA_OF_ASC_NODE":"119.5329","CLASSIFICATION_TYPE":"U","INCLINATION":"53.0552","GP_ID":"201420626","DECAY_DATE":null,"OBJECT_ID":"2021-017AA","EPHEMERIS_TYPE":"0","MEAN_MOTION_DOT":"-0.00000654","NORAD_CAT_ID":"47746","COUNTRY_CODE":"US","MEAN_MOTION":"15.06390964","TLE_LINE1":"1 47746U 21017AA  22106.72919426 -.00000654  00000-0 -24981-4 0  9995","LAUNCH_DATE":"2021-03-04","ELEMENT_SET_NO":"999","MEAN_ANOMALY":"308.4519","MEAN_MOTION_DDOT":"0.0000000000000","CENTER_NAME":"EARTH","REF_FRAME":"TEME","RCS_SIZE":"LARGE","ARG_OF_PERICENTER":"51.6628","OBJECT_NAME":"STARLINK-2160"},{"FILE":"3404767","SITE":"AFETR","APOAPSIS":"548.388","PERIOD":"95.592","BSTAR":"-0.00000917060000","TIME_SYSTEM":"UTC","PERIAPSIS":"546.014","OBJECT_TYPE":"PAYLOAD","TLE_LINE2":"2 47747  53.0528 109.5505 0001714  47.6933 312.4201 15.06404079 63428","ECCENTRICITY":"0.00017140","INCLINATION":"53.0528","RA_OF_ASC_NODE":"109.5505","CLASSIFICATION_TYPE":"U","GP_ID":"201419878","SEMIMAJOR_AXIS":"6925.336","EPOCH":"2022-04-16T17:26:03.639264","REV_AT_EPOCH":"6342","MEAN_ELEMENT_THEORY":"SGP4","MEAN_MOTION_DOT":"-0.00000418","NORAD_CAT_ID":"47747","MEAN_MOTION":"15.06404079","COUNTRY_CODE":"US","DECAY_DATE":null,"OBJECT_ID":"2021-017AB","EPHEMERIS_TYPE":"0","CENTER_NAME":"EARTH","MEAN_MOTION_DDOT":"0.0000000000000","REF_FRAME":"TEME","RCS_SIZE":"LARGE","OBJECT_NAME":"STARLINK-2161","ARG_OF_PERICENTER":"47.6933","TLE_LINE1":"1 47747U 21017AB  22106.72643101 -.00000418  00000-0 -91706-5 0  9998","MEAN_ANOMALY":"312.4201","LAUNCH_DATE":"2021-03-04","ELEMENT_SET_NO":"999"},{"MEAN_ANOMALY":"311.9822","LAUNCH_DATE":"2021-03-04","ELEMENT_SET_NO":"999","TLE_LINE1":"1 47748U 21017AC  22106.71906168 -.00003093  00000-0 -18881-3 0  9996","RCS_SIZE":"LARGE","OBJECT_NAME":"STARLINK-2162","ARG_OF_PERICENTER":"48.1340","CENTER_NAME":"EARTH","MEAN_MOTION_DDOT":"0.0000000000000","REF_FRAME":"TEME","EPHEMERIS_TYPE":"0","DECAY_DATE":null,"OBJECT_ID":"2021-017AC","COUNTRY_CODE":"US","MEAN_MOTION":"15.06399178","MEAN_MOTION_DOT":"-0.00003093","NORAD_CAT_ID":"47748","MEAN_ELEMENT_THEORY":"SGP4","SEMIMAJOR_AXIS":"6925.351","REV_AT_EPOCH":"6339","EPOCH":"2022-04-16T17:15:26.929152","RA_OF_ASC_NODE":"109.5866","INCLINATION":"53.0516","CLASSIFICATION_TYPE":"U","GP_ID":"201419628","ECCENTRICITY":"0.00020270","PERIAPSIS":"545.812","TIME_SYSTEM":"UTC","OBJECT_TYPE":"PAYLOAD","TLE_LINE2":"2 47748  53.0516 109.5866 0002027  48.1340 311.9822 15.06399178 63394","SITE":"AFETR","PERIOD":"95.592","APOAPSIS":"548.620","BSTAR":"-0.00018881000000","FILE":"3404767"}];
